{"type":"FeatureCollection","features":[{"type":"Feature","properties":{"state":"Cross River","zone":"South South"},"geometry":{"type":"Polygon","coordinates":[[[8.126,4.982],[8.509,4.694],[8.816,5.16],[8.86,5.497],[8.922,5.595],[8.851,5.722],[8.865,5.842],[9.363,6.326],[9.435,6.328],[9.467,6.401],[9.471,6.525],[9.3,6.72],[9.035,6.647],[8.969,6.694],[8.974,6.789],[8.704,6.896],[8.601,6.856],[8.621,6.781],[8.42,6.757],[8.295,6.679],[8.457,6.428],[8.399,6.354],[8.418,6.261],[8.274,5.999],[8.215,6.012],[8.114,5.938],[8.05,5.951],[8.041,5.998],[7.98,5.975],[8.006,5.904],[7.932,5.83],[7.97,5.768],[7.887,5.7],[7.988,5.363],[7.841,5.337],[7.976,5.208],[8.042,5.235],[8.126,4.982]]]}},{"type":"Feature","properties":{"state":"FCT","zone":"North Central"},"geometry":{"type":"Polygon","coordinates":[[[6.785,8.458],[7.124,8.423],[7.365,8.488],[7.496,8.654],[7.592,8.835],[7.589,9.129],[7.668,9.304],[7.724,9.329],[7.667,9.401],[7.379,9.336],[7.22,9.114],[7.015,9.269],[6.788,9.27],[6.785,8.458]]]}},{"type":"Feature","properties":{"state":"Ogun","zone":"South West"},"geometry":{"type":"Polygon","coordinates":[[[4.36,6.368],[4.572,6.297],[4.595,6.332],[4.582,6.378],[4.473,6.393],[4.605,6.492],[4.601,6.618],[4.565,6.634],[4.497,6.505],[4.376,6.663],[4.422,6.762],[4.547,6.841],[4.562,6.988],[4.61,7.031],[4.39,6.981],[4.369,7.059],[4.298,7.091],[4.198,7.049],[4.169,7.174],[3.939,7.084],[3.731,7.081],[3.794,7.139],[3.762,7.301],[3.714,7.305],[3.707,7.447],[3.541,7.44],[3.474,7.389],[3.446,7.494],[3.319,7.314],[3.155,7.378],[2.973,7.606],[3.028,7.805],[2.987,7.855],[2.92,7.708],[2.881,7.857],[2.931,7.928],[2.794,7.942],[2.712,7.852],[2.75,7.094],[2.703,6.964],[2.751,6.868],[2.724,6.782],[2.787,6.75],[2.705,6.46],[2.858,6.449],[2.886,6.511],[3.16,6.508],[3.263,6.7],[3.393,6.638],[3.452,6.641],[3.443,6.686],[3.979,6.692],[4.091,6.68],[4.054,6.615],[4.11,6.554],[4.222,6.596],[4.233,6.547],[4.169,6.488],[4.354,6.451],[4.36,6.368]]]}},{"type":"Feature","properties":{"state":"Oyo","zone":"South West"},"geometry":{"type":"Polygon","coordinates":[[[4.088,7.133],[4.155,7.509],[4.139,7.599],[4.053,7.675],[4.09,7.86],[4.197,7.865],[4.191,7.91],[4.276,7.971],[4.371,7.849],[4.55,7.971],[4.569,8.055],[4.506,8.092],[4.19,8.753],[4.221,8.861],[4.335,8.981],[4.21,8.97],[4.012,9.035],[3.921,9.173],[3.863,9.188],[3.771,9.147],[3.691,8.997],[3.596,8.999],[3.6,8.957],[3.237,8.783],[3.164,8.809],[2.921,8.612],[2.756,8.575],[2.709,8.339],[2.754,8.207],[2.693,7.906],[2.712,7.852],[2.802,7.949],[2.931,7.928],[2.888,7.89],[2.886,7.769],[2.923,7.709],[2.987,7.855],[3.011,7.83],[3.03,7.756],[2.973,7.606],[3.155,7.378],[3.319,7.314],[3.446,7.494],[3.474,7.389],[3.541,7.44],[3.707,7.447],[3.714,7.305],[3.762,7.301],[3.794,7.139],[3.728,7.084],[4.088,7.133]]]}},{"type":"Feature","properties":{"state":"Sokoto","zone":"North West"},"geometry":{"type":"Polygon","coordinates":[[[4.126,13.25],[4.3,13.26],[4.623,13.07],[4.702,13.073],[4.732,13.053],[4.646,12.949],[4.807,12.819],[4.73,12.702],[4.812,12.504],[4.754,12.364],[4.63,12.433],[4.521,12.251],[4.562,12.23],[4.588,12.039],[4.549,11.796],[4.436,11.711],[4.369,11.747],[4.483,11.532],[4.57,11.574],[4.546,11.634],[4.815,11.766],[4.889,11.75],[4.894,11.709],[4.943,11.727],[4.92,11.79],[4.968,11.876],[4.867,11.933],[4.862,12.16],[4.875,12.23],[4.95,12.231],[4.953,12.314],[5.117,12.283],[5.422,12.353],[5.476,12.252],[5.541,12.273],[5.567,12.352],[5.751,12.324],[5.723,12.621],[5.677,12.632],[5.686,12.714],[5.588,12.804],[5.635,12.883],[6.024,12.749],[6.006,12.919],[6.049,12.948],[6.047,13.031],[6.3,13.182],[6.359,13.137],[6.509,13.132],[6.581,13.023],[6.688,13.133],[6.793,13.132],[6.735,13.282],[6.462,13.59],[6.296,13.679],[6.156,13.645],[5.53,13.886],[5.35,13.834],[5.248,13.743],[4.95,13.734],[4.874,13.781],[4.394,13.653],[4.232,13.499],[4.126,13.468],[4.126,13.25]]]}},{"type":"Feature","properties":{"state":"Zamfara","zone":"North West"},"geometry":{"type":"Polygon","coordinates":[[[4.941,11.731],[5.007,11.75],[5.063,11.708],[5.177,11.744],[5.178,11.792],[5.238,11.756],[5.31,11.794],[5.35,11.709],[5.44,11.709],[5.497,11.656],[5.78,11.684],[5.829,11.625],[5.835,11.435],[6.01,11.463],[6.08,11.388],[6.204,11.384],[6.106,11.183],[6.047,11.163],[6.059,11.23],[6.025,11.172],[6.046,11.054],[6.12,11.06],[6.28,10.964],[6.329,11.027],[6.675,11.056],[6.716,11.106],[6.703,11.239],[6.889,11.384],[6.904,11.553],[6.852,11.621],[6.901,11.798],[7.06,11.79],[7.142,11.849],[7.141,11.911],[7.247,11.933],[7.117,12.094],[7.15,12.232],[7.093,12.283],[7.044,12.659],[6.989,12.673],[7.061,12.74],[7.051,12.995],[6.933,12.997],[6.793,13.132],[6.688,13.133],[6.56,13.028],[6.509,13.132],[6.359,13.137],[6.3,13.182],[6.047,13.031],[6.049,12.948],[6.006,12.919],[6.024,12.749],[5.635,12.883],[5.588,12.804],[5.686,12.714],[5.677,12.632],[5.723,12.621],[5.755,12.331],[5.567,12.352],[5.541,12.273],[5.476,12.252],[5.422,12.353],[5.117,12.283],[4.953,12.314],[4.95,12.231],[4.875,12.23],[4.862,12.16],[4.867,11.933],[4.968,11.876],[4.92,11.79],[4.941,11.731]]]}},{"type":"Feature","properties":{"state":"Lagos","zone":"South West"},"geometry":{"type":"Polygon","coordinates":[[[2.705,6.46],[2.706,6.375],[3.86,6.436],[4.36,6.368],[4.369,6.438],[4.173,6.484],[4.222,6.596],[4.11,6.554],[4.054,6.615],[4.091,6.68],[3.979,6.692],[3.443,6.686],[3.452,6.641],[3.393,6.638],[3.263,6.7],[3.16,6.508],[2.886,6.511],[2.858,6.449],[2.705,6.46]]]}},{"type":"Feature","properties":{"state":"Akwa Ibom","zone":"South South"},"geometry":{"type":"Polygon","coordinates":[[[7.902,5.336],[7.757,5.51],[7.696,5.518],[7.7,5.432],[7.657,5.446],[7.622,5.388],[7.665,5.344],[7.535,5.304],[7.547,5.088],[7.46,4.978],[7.542,4.73],[7.528,4.55],[7.606,4.47],[8.027,4.543],[8.292,4.537],[8.344,4.607],[8.302,4.817],[8.23,4.931],[8.126,4.982],[8.042,5.235],[7.976,5.208],[7.843,5.335],[7.902,5.336]]]}},{"type":"Feature","properties":{"state":"Bayelsa","zone":"South South"},"geometry":{"type":"Polygon","coordinates":[[[5.448,5.134],[5.375,5.126],[5.542,4.73],[5.843,4.402],[6.088,4.27],[6.22,4.279],[6.242,4.401],[6.241,4.36],[6.282,4.375],[6.239,4.293],[6.549,4.325],[6.513,4.432],[6.566,4.554],[6.512,4.643],[6.607,4.746],[6.461,4.713],[6.398,4.864],[6.441,4.943],[6.412,5.005],[6.493,5.163],[6.559,5.198],[6.562,5.379],[6.485,5.379],[6.49,5.324],[6.306,5.303],[6.29,5.234],[6.213,5.239],[6.191,5.159],[6.086,5.151],[6.055,5.097],[5.933,5.165],[5.868,5.068],[5.791,5.086],[5.648,5.012],[5.448,5.134]]]}},{"type":"Feature","properties":{"state":"Ondo","zone":"South West"},"geometry":{"type":"Polygon","coordinates":[[[4.483,6.326],[4.985,5.896],[5.138,6.173],[5.016,6.292],[5.029,6.364],[5.153,6.498],[5.118,6.684],[5.255,6.883],[5.555,6.883],[5.577,6.704],[5.771,6.797],[5.793,7.022],[5.894,7.183],[5.919,7.337],[5.987,7.355],[5.949,7.496],[6.004,7.536],[5.931,7.745],[5.773,7.747],[5.716,7.701],[5.625,7.582],[5.588,7.432],[5.473,7.302],[5.358,7.296],[5.315,7.443],[5.065,7.46],[4.99,7.378],[4.755,7.361],[4.747,7.223],[4.564,6.996],[4.547,6.841],[4.39,6.716],[4.377,6.645],[4.454,6.607],[4.497,6.505],[4.565,6.634],[4.601,6.618],[4.605,6.492],[4.473,6.393],[4.582,6.378],[4.595,6.332],[4.572,6.297],[4.483,6.326]]]}},{"type":"Feature","properties":{"state":"Delta","zone":"South South"},"geometry":{"type":"Polygon","coordinates":[[[6.494,5.326],[6.531,5.532],[6.618,5.632],[6.601,5.707],[6.725,6.012],[6.705,6.081],[6.769,6.168],[6.669,6.501],[6.523,6.488],[6.213,6.279],[6.113,6.349],[6.077,6.279],[6.134,6.136],[6.257,6.017],[6.201,5.897],[6.04,5.765],[5.925,5.748],[5.921,5.877],[5.669,6.052],[5.546,5.985],[5.497,6.042],[5.334,6.021],[5.359,5.97],[5.276,5.907],[5.222,6.148],[5.134,6.169],[4.977,5.888],[5.17,5.594],[5.247,5.622],[5.374,5.599],[5.399,5.637],[5.445,5.654],[5.504,5.616],[5.418,5.64],[5.387,5.586],[5.207,5.599],[5.157,5.537],[5.24,5.44],[5.431,5.386],[5.524,5.513],[5.6,5.517],[5.52,5.501],[5.527,5.407],[5.467,5.372],[5.32,5.355],[5.373,5.146],[5.444,5.147],[5.468,5.093],[5.648,5.012],[5.791,5.086],[5.868,5.068],[5.933,5.165],[6.027,5.096],[6.086,5.151],[6.144,5.135],[6.201,5.17],[6.202,5.232],[6.29,5.234],[6.306,5.303],[6.494,5.326]]]}},{"type":"Feature","properties":{"state":"Rivers","zone":"South South"},"geometry":{"type":"Polygon","coordinates":[[[7.495,4.828],[7.147,4.89],[7.241,4.994],[7.281,5.202],[6.827,5.252],[6.756,5.323],[6.741,5.494],[6.639,5.493],[6.669,5.69],[6.602,5.687],[6.618,5.632],[6.477,5.404],[6.57,5.372],[6.531,5.285],[6.559,5.198],[6.493,5.163],[6.412,5.005],[6.441,4.943],[6.398,4.864],[6.461,4.713],[6.607,4.746],[6.512,4.643],[6.566,4.554],[6.513,4.432],[6.549,4.325],[6.706,4.339],[6.682,4.409],[6.7,4.42],[6.69,4.519],[6.724,4.613],[6.717,4.35],[6.875,4.357],[6.858,4.398],[7.019,4.376],[6.984,4.617],[7.024,4.441],[7.159,4.464],[7.176,4.584],[7.084,4.684],[7.086,4.723],[7.217,4.545],[7.135,4.41],[7.137,4.375],[7.333,4.444],[7.587,4.453],[7.521,4.55],[7.542,4.73],[7.495,4.828]]]}},{"type":"Feature","properties":{"state":"Kwara","zone":"North Central"},"geometry":{"type":"Polygon","coordinates":[[[4.506,8.092],[4.819,8.054],[4.854,8.096],[4.973,8.021],[5.04,8.072],[5.076,8.025],[5.142,8.062],[5.332,8.01],[5.371,8.096],[5.537,8.156],[5.537,8.206],[5.422,8.228],[5.418,8.284],[5.357,8.275],[5.322,8.341],[5.496,8.529],[5.783,8.428],[6.078,8.398],[6.209,8.732],[5.796,8.742],[5.525,8.94],[5.209,9.035],[5.016,9.205],[4.785,9.135],[4.738,9.269],[4.639,9.308],[4.351,9.588],[4.153,9.862],[4.022,9.857],[3.936,9.916],[3.949,9.991],[3.887,9.988],[3.903,10.019],[3.818,10.067],[3.775,10.033],[3.684,10.157],[3.525,9.844],[3.341,9.808],[3.353,9.703],[3.142,9.441],[3.166,9.303],[3.095,9.091],[2.795,9.057],[2.756,8.575],[2.921,8.612],[3.164,8.809],[3.237,8.783],[3.6,8.957],[3.596,8.999],[3.691,8.997],[3.771,9.147],[3.921,9.173],[4.012,9.035],[4.21,8.97],[4.335,8.981],[4.221,8.861],[4.19,8.753],[4.506,8.092]]]}},{"type":"Feature","properties":{"state":"Kogi","zone":"North Central"},"geometry":{"type":"Polygon","coordinates":[[[6.828,8.458],[6.837,8.391],[6.691,8.183],[6.453,8.448],[6.359,8.685],[6.247,8.739],[6.17,8.663],[6.078,8.398],[5.705,8.446],[5.513,8.539],[5.322,8.341],[5.357,8.275],[5.418,8.284],[5.422,8.228],[5.537,8.206],[5.506,8.019],[5.66,8.07],[5.668,8.002],[5.599,7.958],[5.623,7.843],[5.729,7.828],[5.816,7.728],[5.929,7.747],[6.004,7.529],[6.119,7.591],[6.167,7.545],[6.112,7.449],[6.183,7.429],[6.295,7.499],[6.38,7.398],[6.428,7.415],[6.511,7.267],[6.638,7.294],[6.716,7.136],[6.611,6.822],[6.662,6.558],[6.808,6.58],[6.8,6.693],[6.963,6.844],[6.991,6.785],[7.081,6.8],[7.394,7.093],[7.608,7.018],[7.643,7.158],[7.797,7.233],[7.799,7.401],[7.724,7.62],[7.753,7.744],[7.664,7.906],[7.677,8.017],[7.306,8.028],[6.964,7.879],[7.003,8.167],[6.935,8.31],[6.981,8.444],[6.828,8.458]]]}},{"type":"Feature","properties":{"state":"Benue","zone":"North Central"},"geometry":{"type":"Polygon","coordinates":[[[9.467,6.401],[9.598,6.5],[9.646,6.895],[9.824,7.172],[9.883,7.414],[9.871,7.54],[9.643,7.8],[9.387,7.845],[9.13,7.788],[9.183,7.896],[9.062,8.074],[8.781,8.075],[8.524,8.157],[8.391,8.078],[8.34,7.961],[8.403,7.766],[7.877,7.983],[7.677,8.014],[7.664,7.906],[7.753,7.744],[7.724,7.62],[7.799,7.401],[7.797,7.233],[7.643,7.158],[7.608,7.018],[7.531,7.032],[7.675,6.856],[7.819,6.892],[7.888,6.854],[7.903,6.781],[7.811,6.646],[7.856,6.581],[7.951,6.543],[7.984,6.72],[8.128,6.712],[8.229,6.8],[8.321,6.679],[8.42,6.757],[8.621,6.781],[8.601,6.856],[8.721,6.896],[8.974,6.789],[8.969,6.694],[9.035,6.647],[9.3,6.72],[9.471,6.525],[9.467,6.401]]]}},{"type":"Feature","properties":{"state":"Borno","zone":"North East"},"geometry":{"type":"Polygon","coordinates":[[[11.836,10.034],[12.087,10.06],[12.136,10.237],[12.257,10.36],[12.387,10.317],[12.422,10.371],[12.557,10.395],[12.579,10.492],[12.652,10.439],[12.745,10.58],[12.959,10.548],[13.197,10.409],[13.346,10.931],[13.383,10.878],[13.585,10.949],[13.751,10.914],[14.004,11.283],[14.164,11.234],[14.618,11.506],[14.641,11.647],[14.589,11.755],[14.674,12.176],[14.55,12.236],[14.485,12.351],[14.228,12.362],[14.176,12.41],[14.203,12.538],[14.083,13.083],[13.634,13.708],[13.338,13.721],[13.198,13.513],[13.062,13.55],[12.877,13.486],[12.677,13.276],[12.591,13.283],[12.534,13.207],[12.556,13.161],[12.43,13.073],[12.395,12.916],[12.485,12.802],[12.504,12.691],[12.419,12.524],[12.287,12.425],[12.236,12.137],[12.27,11.826],[12.196,11.658],[12.224,11.633],[12.275,11.694],[12.374,11.55],[12.103,11.248],[12.153,11.05],[12.043,11.049],[11.938,10.948],[11.64,10.876],[11.634,10.833],[11.751,10.813],[11.767,10.706],[11.573,10.573],[11.661,10.486],[11.529,10.314],[11.836,10.034]]]}},{"type":"Feature","properties":{"state":"Katsina","zone":"North West"},"geometry":{"type":"Polygon","coordinates":[[[6.889,11.384],[7.006,11.362],[6.968,11.245],[7.152,11.129],[7.22,11.194],[7.195,11.258],[7.358,11.264],[7.398,11.378],[7.52,11.362],[7.608,11.272],[7.706,11.31],[7.751,11.371],[7.675,11.483],[7.705,11.592],[7.902,11.653],[7.826,11.953],[7.88,12.044],[7.865,12.281],[8.002,12.394],[8.157,12.44],[8.18,12.564],[8.246,12.594],[8.153,12.655],[8.145,12.721],[8.185,12.732],[8.128,12.801],[8.563,12.834],[8.604,12.737],[8.688,12.688],[8.865,12.669],[9.041,12.846],[8.664,12.943],[8.542,13.075],[8.409,13.088],[8.041,13.321],[7.82,13.352],[7.38,13.1],[7.219,13.126],[7.051,12.995],[7.061,12.74],[6.989,12.673],[7.044,12.659],[7.093,12.283],[7.15,12.232],[7.117,12.094],[7.247,11.933],[7.141,11.911],[7.142,11.849],[7.06,11.79],[6.901,11.798],[6.852,11.621],[6.904,11.553],[6.889,11.384]]]}},{"type":"Feature","properties":{"state":"Plateau","zone":"North Central"},"geometry":{"type":"Polygon","coordinates":[[[9.617,8.372],[9.757,8.367],[9.869,8.431],[10.407,8.935],[10.597,8.976],[10.64,9.073],[10.56,9.351],[10.577,9.446],[10.489,9.553],[10.261,9.687],[10.152,9.679],[10.068,9.731],[9.984,9.713],[9.962,9.613],[9.692,9.522],[9.579,9.552],[9.569,9.473],[9.425,9.477],[9.304,9.572],[9.285,9.698],[9.217,9.684],[9.15,9.748],[9.271,9.842],[9.232,9.862],[9.214,10.018],[9.255,10.03],[9.124,10.058],[8.977,9.987],[8.939,10.027],[8.977,10.161],[8.93,10.215],[8.955,10.309],[8.818,10.38],[8.799,10.303],[8.686,10.211],[8.644,9.775],[8.555,9.581],[8.618,9.435],[8.695,9.378],[8.661,9.195],[8.765,9.165],[8.798,9.032],[9.063,9.018],[9.024,8.866],[8.959,8.85],[8.892,8.74],[8.982,8.527],[9.049,8.52],[9.132,8.429],[9.355,8.483],[9.617,8.372]]]}},{"type":"Feature","properties":{"state":"Edo","zone":"South South"},"geometry":{"type":"Polygon","coordinates":[[[5.134,6.169],[5.222,6.148],[5.276,5.907],[5.359,5.97],[5.334,6.021],[5.497,6.042],[5.546,5.985],[5.669,6.052],[5.921,5.877],[5.925,5.748],[6.094,5.794],[6.257,6.017],[6.134,6.136],[6.088,6.318],[6.127,6.356],[6.213,6.279],[6.523,6.488],[6.669,6.501],[6.611,6.822],[6.716,7.121],[6.693,7.216],[6.638,7.294],[6.511,7.267],[6.428,7.415],[6.38,7.398],[6.295,7.499],[6.183,7.429],[6.112,7.449],[6.167,7.545],[6.119,7.591],[6.043,7.577],[5.954,7.515],[5.987,7.355],[5.919,7.337],[5.894,7.183],[5.793,7.022],[5.767,6.792],[5.577,6.704],[5.562,6.879],[5.272,6.888],[5.141,6.731],[5.112,6.63],[5.153,6.498],[5.013,6.302],[5.134,6.169]]]}},{"type":"Feature","properties":{"state":"Jigawa","zone":"North West"},"geometry":{"type":"Polygon","coordinates":[[[8.153,12.655],[8.289,12.6],[8.366,12.432],[8.489,12.601],[8.719,12.567],[8.696,12.443],[8.795,12.382],[8.724,12.295],[8.91,12.301],[8.952,12.185],[8.915,12.076],[9.074,12.074],[9.085,12.027],[9.149,12.019],[9.199,12.083],[9.23,11.895],[9.144,11.827],[9.142,11.759],[9.171,11.703],[9.226,11.736],[9.241,11.645],[9.36,11.561],[9.232,11.45],[9.195,11.327],[9.346,11.347],[9.498,11.278],[9.609,11.315],[9.596,11.248],[9.678,11.221],[9.825,11.28],[9.881,11.196],[9.869,11.0],[10.22,10.947],[10.156,11.006],[10.169,11.058],[10.334,11.118],[10.366,11.206],[10.012,11.261],[9.913,11.316],[9.875,11.453],[9.785,11.468],[9.831,11.54],[9.828,11.692],[9.62,11.754],[9.683,11.867],[10.174,12.039],[10.148,12.238],[10.258,12.46],[10.447,12.439],[10.606,12.489],[10.599,12.706],[10.547,12.821],[10.475,12.79],[10.331,12.847],[10.291,12.815],[10.282,12.979],[10.224,13.015],[9.988,12.956],[9.786,12.799],[9.041,12.846],[8.865,12.669],[8.688,12.688],[8.604,12.737],[8.563,12.834],[8.152,12.819],[8.128,12.797],[8.185,12.732],[8.145,12.721],[8.153,12.655]]]}},{"type":"Feature","properties":{"state":"Anambra","zone":"South East"},"geometry":{"type":"Polygon","coordinates":[[[6.602,5.687],[6.811,5.788],[6.877,5.744],[7.003,5.905],[7.189,5.9],[7.323,6.004],[7.339,6.042],[7.261,6.079],[7.2,6.235],[7.143,6.236],[7.144,6.388],[7.032,6.442],[7.132,6.643],[7.102,6.676],[6.91,6.696],[6.861,6.753],[6.8,6.693],[6.808,6.58],[6.662,6.558],[6.769,6.168],[6.705,6.081],[6.716,5.97],[6.602,5.687]]]}},{"type":"Feature","properties":{"state":"Kano","zone":"North West"},"geometry":{"type":"Polygon","coordinates":[[[7.751,11.371],[7.879,11.386],[7.968,11.479],[8.15,11.519],[8.123,11.387],[8.264,11.313],[8.298,11.234],[8.434,11.227],[8.607,11.071],[8.572,10.748],[8.481,10.716],[8.514,10.643],[8.644,10.63],[8.711,10.543],[8.852,10.686],[8.745,10.859],[8.805,11.104],[8.893,11.117],[9.085,11.315],[9.18,11.309],[9.232,11.45],[9.36,11.561],[9.241,11.645],[9.226,11.736],[9.171,11.703],[9.142,11.759],[9.144,11.827],[9.23,11.895],[9.199,12.083],[9.149,12.019],[9.085,12.027],[9.074,12.074],[8.915,12.076],[8.952,12.185],[8.91,12.301],[8.724,12.295],[8.795,12.382],[8.696,12.443],[8.73,12.559],[8.492,12.602],[8.366,12.432],[8.279,12.605],[8.18,12.564],[8.157,12.44],[8.002,12.394],[7.865,12.281],[7.88,12.044],[7.826,11.953],[7.902,11.653],[7.705,11.592],[7.675,11.483],[7.751,11.371]]]}},{"type":"Feature","properties":{"state":"Nasarawa","zone":"North Central"},"geometry":{"type":"Polygon","coordinates":[[[6.981,8.444],[6.935,8.31],[7.003,8.167],[6.964,7.879],[7.254,8.015],[7.505,8.047],[7.877,7.983],[8.403,7.766],[8.34,7.961],[8.391,8.078],[8.504,8.158],[8.781,8.075],[9.057,8.078],[9.179,7.908],[9.415,8.062],[9.412,8.177],[9.323,8.253],[9.363,8.341],[9.618,8.303],[9.602,8.393],[9.381,8.478],[9.132,8.429],[9.049,8.52],[8.982,8.527],[8.892,8.74],[9.072,8.945],[9.057,9.024],[8.798,9.032],[8.765,9.165],[8.658,9.208],[8.533,9.004],[8.343,9.194],[8.258,9.183],[8.192,9.052],[8.099,9.04],[8.062,9.052],[8.061,9.266],[7.919,9.317],[7.793,9.276],[7.724,9.329],[7.668,9.304],[7.589,9.129],[7.592,8.835],[7.365,8.488],[7.124,8.423],[6.981,8.444]]]}},{"type":"Feature","properties":{"state":"Kebbi","zone":"North West"},"geometry":{"type":"Polygon","coordinates":[[[4.126,13.25],[4.105,12.996],[3.953,12.749],[3.658,12.529],[3.666,12.207],[3.628,12.125],[3.672,11.976],[3.619,11.908],[3.665,11.759],[3.511,11.67],[3.486,11.313],[3.722,11.132],[3.77,10.92],[4.1,11.026],[4.267,11.025],[4.277,10.954],[4.381,10.88],[4.695,10.919],[4.691,10.663],[4.51,10.535],[4.479,10.421],[4.483,10.329],[4.569,10.246],[4.53,10.101],[4.625,10.103],[4.669,10.226],[4.794,10.261],[4.872,10.218],[4.947,10.285],[4.932,10.44],[4.819,10.507],[4.81,10.698],[4.947,10.69],[5.109,10.796],[5.029,10.859],[5.082,10.927],[5.041,11.052],[4.746,11.148],[4.712,11.297],[4.898,11.391],[4.966,11.362],[5.012,11.252],[5.058,11.27],[5.053,11.205],[5.071,11.238],[5.233,11.218],[5.25,11.309],[5.333,11.356],[5.413,11.121],[5.389,11.037],[5.556,10.947],[5.729,10.998],[5.915,11.145],[6.016,11.138],[6.059,11.23],[6.047,11.163],[6.106,11.183],[6.204,11.384],[6.08,11.388],[6.01,11.463],[5.835,11.435],[5.788,11.679],[5.497,11.656],[5.44,11.709],[5.35,11.709],[5.31,11.794],[5.238,11.756],[5.178,11.792],[5.177,11.744],[5.063,11.708],[5.007,11.75],[4.894,11.709],[4.889,11.75],[4.815,11.766],[4.546,11.634],[4.57,11.574],[4.483,11.532],[4.369,11.747],[4.436,11.711],[4.549,11.796],[4.588,12.039],[4.562,12.23],[4.521,12.251],[4.63,12.433],[4.754,12.364],[4.812,12.504],[4.73,12.702],[4.807,12.819],[4.646,12.949],[4.732,13.053],[4.702,13.073],[4.623,13.07],[4.3,13.26],[4.126,13.25]]]}},{"type":"Feature","properties":{"state":"Imo","zone":"South East"},"geometry":{"type":"Polygon","coordinates":[[[7.264,5.216],[7.432,5.609],[7.382,5.706],[7.392,5.912],[7.06,5.931],[6.892,5.809],[6.88,5.746],[6.811,5.788],[6.695,5.746],[6.639,5.493],[6.741,5.494],[6.756,5.323],[6.804,5.269],[6.904,5.22],[7.04,5.25],[7.264,5.216]]]}},{"type":"Feature","properties":{"state":"Gombe","zone":"North East"},"geometry":{"type":"Polygon","coordinates":[[[11.583,10.594],[11.513,10.585],[11.527,10.942],[11.319,11.186],[11.224,11.165],[11.092,11.226],[11.077,11.287],[10.93,11.091],[10.772,11.06],[10.738,11.101],[10.669,11.04],[10.641,10.961],[10.677,10.931],[10.494,10.688],[10.662,10.491],[10.81,10.448],[10.835,10.4],[10.857,10.236],[10.712,10.076],[10.945,9.88],[10.992,9.559],[11.42,9.546],[11.614,9.656],[11.655,9.637],[11.851,9.786],[11.801,9.841],[11.836,10.034],[11.529,10.314],[11.656,10.461],[11.583,10.594]]]}},{"type":"Feature","properties":{"state":"Adamawa","zone":"North East"},"geometry":{"type":"Polygon","coordinates":[[[11.836,10.034],[11.801,9.841],[11.855,9.793],[11.817,9.741],[11.43,9.55],[11.531,9.326],[11.648,9.305],[11.707,9.074],[11.872,8.947],[11.827,8.739],[11.743,8.678],[11.795,8.546],[11.613,8.404],[11.546,8.246],[11.342,8.019],[11.49,7.8],[11.552,7.903],[11.646,7.866],[11.633,7.75],[11.758,7.725],[11.772,7.488],[11.853,7.391],[12.044,7.578],[12.033,7.715],[12.221,7.995],[12.202,8.107],[12.256,8.198],[12.263,8.419],[12.603,8.493],[12.681,8.467],[12.755,8.572],[12.826,8.565],[12.817,8.65],[12.879,8.75],[12.844,8.971],[12.925,8.993],[12.942,9.063],[12.898,9.348],[13.024,9.496],[13.239,9.579],[13.235,9.908],[13.286,9.971],[13.245,10.038],[13.508,10.214],[13.492,10.39],[13.561,10.644],[13.751,10.914],[13.585,10.949],[13.383,10.878],[13.346,10.931],[13.197,10.409],[12.959,10.548],[12.745,10.58],[12.652,10.439],[12.579,10.492],[12.557,10.395],[12.422,10.371],[12.387,10.317],[12.257,10.36],[12.136,10.237],[12.087,10.06],[11.836,10.034]]]}},{"type":"Feature","properties":{"state":"Yobe","zone":"North East"},"geometry":{"type":"Polygon","coordinates":[[[12.43,13.073],[12.09,13.122],[11.82,13.273],[11.452,13.377],[10.735,13.387],[10.148,13.26],[9.909,13.112],[9.662,12.834],[9.765,12.796],[9.858,12.82],[9.964,12.944],[10.224,13.015],[10.282,12.979],[10.291,12.815],[10.331,12.847],[10.475,12.79],[10.558,12.809],[10.59,12.526],[10.751,12.476],[10.827,12.096],[10.8,11.944],[10.928,11.777],[10.918,11.269],[10.982,11.179],[11.077,11.287],[11.092,11.226],[11.224,11.165],[11.319,11.186],[11.471,11.022],[11.53,10.935],[11.528,10.568],[11.754,10.663],[11.751,10.813],[11.634,10.833],[11.64,10.876],[11.938,10.948],[12.043,11.049],[12.153,11.05],[12.103,11.248],[12.374,11.55],[12.275,11.694],[12.224,11.633],[12.196,11.658],[12.27,11.826],[12.236,12.137],[12.287,12.425],[12.419,12.524],[12.504,12.691],[12.485,12.802],[12.395,12.916],[12.43,13.073]]]}},{"type":"Feature","properties":{"state":"Abia","zone":"South East"},"geometry":{"type":"Polygon","coordinates":[[[7.89,5.685],[7.769,5.814],[7.535,5.835],[7.52,6.02],[7.339,6.042],[7.264,5.991],[7.271,5.925],[7.396,5.908],[7.382,5.706],[7.432,5.609],[7.292,5.328],[7.241,4.994],[7.147,4.89],[7.495,4.828],[7.46,4.978],[7.547,5.088],[7.535,5.304],[7.665,5.344],[7.622,5.388],[7.657,5.446],[7.7,5.432],[7.696,5.518],[7.757,5.51],[7.876,5.369],[7.988,5.363],[7.89,5.685]]]}},{"type":"Feature","properties":{"state":"Ekiti","zone":"South West"},"geometry":{"type":"Polygon","coordinates":[[[5.625,7.582],[5.792,7.782],[5.614,7.866],[5.599,7.958],[5.668,8.002],[5.656,8.075],[5.509,8.018],[5.514,8.111],[5.398,8.104],[5.332,8.01],[5.142,8.062],[5.058,8.039],[4.911,7.85],[4.864,7.623],[4.987,7.419],[5.065,7.46],[5.32,7.441],[5.388,7.283],[5.521,7.333],[5.625,7.582]]]}},{"type":"Feature","properties":{"state":"Osun","zone":"South West"},"geometry":{"type":"Polygon","coordinates":[[[4.61,7.031],[4.747,7.223],[4.755,7.361],[5.006,7.392],[4.864,7.623],[4.911,7.85],[5.031,7.977],[5.04,8.072],[4.973,8.021],[4.887,8.091],[4.666,8.043],[4.622,8.076],[4.371,7.849],[4.276,7.971],[4.191,7.91],[4.197,7.865],[4.09,7.86],[4.053,7.675],[4.139,7.599],[4.155,7.509],[4.071,7.139],[4.169,7.174],[4.198,7.049],[4.298,7.091],[4.369,7.059],[4.39,6.981],[4.61,7.031]]]}},{"type":"Feature","properties":{"state":"Bauchi","zone":"North East"},"geometry":{"type":"Polygon","coordinates":[[[10.541,9.484],[10.774,9.447],[10.99,9.641],[10.945,9.88],[10.712,10.076],[10.857,10.236],[10.835,10.4],[10.81,10.448],[10.662,10.491],[10.494,10.688],[10.652,10.881],[10.643,10.977],[10.708,11.085],[10.93,11.091],[11.009,11.149],[10.917,11.271],[10.928,11.777],[10.8,11.944],[10.827,12.096],[10.751,12.476],[10.614,12.532],[10.602,12.485],[10.459,12.441],[10.225,12.434],[10.254,12.391],[10.148,12.238],[10.174,12.039],[9.683,11.867],[9.62,11.754],[9.828,11.692],[9.831,11.54],[9.785,11.468],[9.875,11.453],[9.913,11.316],[10.012,11.261],[10.366,11.206],[10.334,11.118],[10.169,11.058],[10.156,11.006],[10.22,10.947],[9.869,11.0],[9.881,11.196],[9.825,11.28],[9.678,11.221],[9.596,11.248],[9.609,11.315],[9.464,11.282],[9.287,11.349],[9.085,11.315],[8.893,11.117],[8.805,11.104],[8.745,10.859],[8.855,10.707],[8.749,10.441],[8.946,10.328],[8.93,10.215],[8.978,10.181],[8.939,10.027],[8.977,9.987],[9.124,10.058],[9.255,10.03],[9.214,10.018],[9.232,9.862],[9.271,9.842],[9.15,9.748],[9.217,9.684],[9.285,9.698],[9.351,9.532],[9.425,9.477],[9.569,9.473],[9.579,9.552],[9.746,9.531],[9.831,9.599],[9.981,9.623],[9.973,9.7],[10.068,9.731],[10.152,9.679],[10.261,9.687],[10.541,9.484]]]}},{"type":"Feature","properties":{"state":"Niger","zone":"North Central"},"geometry":{"type":"Polygon","coordinates":[[[7.379,9.336],[7.232,9.318],[7.201,9.46],[7.306,9.628],[7.205,9.758],[7.291,9.8],[7.278,10.016],[6.952,10.048],[6.882,10.117],[7.051,10.317],[6.926,10.37],[6.954,10.482],[6.919,10.531],[6.84,10.532],[6.803,10.643],[6.72,10.644],[6.726,10.589],[6.549,10.545],[6.495,10.616],[6.397,10.573],[6.297,10.418],[6.17,10.358],[6.158,10.501],[6.092,10.522],[6.141,10.673],[6.093,10.699],[6.102,10.775],[6.123,10.845],[6.267,10.966],[6.163,11.043],[6.046,11.054],[5.978,11.167],[5.729,10.998],[5.556,10.947],[5.389,11.037],[5.413,11.121],[5.333,11.356],[5.25,11.309],[5.233,11.218],[5.071,11.238],[5.053,11.205],[5.058,11.27],[5.012,11.252],[4.966,11.362],[4.898,11.391],[4.712,11.297],[4.746,11.148],[5.041,11.052],[5.082,10.927],[5.029,10.859],[5.109,10.796],[4.947,10.69],[4.81,10.698],[4.819,10.507],[4.932,10.44],[4.947,10.285],[4.872,10.218],[4.794,10.261],[4.669,10.226],[4.625,10.103],[4.53,10.101],[4.569,10.246],[4.483,10.329],[4.479,10.421],[4.51,10.535],[4.691,10.663],[4.695,10.919],[4.381,10.88],[4.277,10.954],[4.267,11.025],[4.1,11.026],[3.77,10.92],[3.749,10.803],[3.849,10.683],[3.855,10.585],[3.794,10.406],[3.684,10.448],[3.582,10.275],[3.731,10.068],[3.949,9.991],[3.936,9.916],[4.022,9.857],[4.153,9.862],[4.351,9.588],[4.639,9.308],[4.738,9.269],[4.785,9.135],[5.016,9.205],[5.209,9.035],[5.525,8.94],[5.796,8.742],[6.303,8.728],[6.398,8.629],[6.453,8.448],[6.691,8.183],[6.838,8.397],[6.828,8.458],[6.785,8.458],[6.788,9.27],[7.015,9.269],[7.22,9.114],[7.379,9.336]]]}},{"type":"Feature","properties":{"state":"Kaduna","zone":"North West"},"geometry":{"type":"Polygon","coordinates":[[[7.647,9.409],[7.793,9.276],[7.919,9.317],[8.061,9.266],[8.062,9.052],[8.192,9.052],[8.258,9.183],[8.343,9.194],[8.514,9.001],[8.576,9.034],[8.698,9.321],[8.554,9.569],[8.644,9.775],[8.686,10.211],[8.799,10.303],[8.818,10.38],[8.749,10.441],[8.793,10.565],[8.779,10.598],[8.711,10.543],[8.644,10.63],[8.506,10.65],[8.481,10.716],[8.572,10.748],[8.607,11.071],[8.434,11.227],[8.298,11.234],[8.264,11.313],[8.123,11.387],[8.15,11.519],[7.968,11.479],[7.856,11.378],[7.72,11.37],[7.716,11.318],[7.608,11.272],[7.52,11.362],[7.398,11.378],[7.358,11.264],[7.195,11.258],[7.22,11.194],[7.152,11.129],[6.968,11.245],[7.006,11.362],[6.889,11.384],[6.703,11.239],[6.716,11.106],[6.677,11.057],[6.329,11.027],[6.165,10.893],[6.102,10.775],[6.093,10.699],[6.141,10.673],[6.092,10.522],[6.158,10.501],[6.17,10.358],[6.297,10.418],[6.436,10.591],[6.495,10.616],[6.549,10.545],[6.726,10.589],[6.72,10.644],[6.817,10.638],[6.84,10.532],[6.913,10.538],[6.954,10.482],[6.926,10.37],[7.051,10.317],[6.885,10.151],[6.901,10.076],[7.278,10.016],[7.291,9.8],[7.205,9.758],[7.306,9.628],[7.201,9.46],[7.232,9.318],[7.647,9.409]]]}},{"type":"Feature","properties":{"state":"Enugu","zone":"South East"},"geometry":{"type":"Polygon","coordinates":[[[6.861,6.753],[6.91,6.696],[7.129,6.659],[7.032,6.442],[7.144,6.388],[7.143,6.236],[7.2,6.235],[7.261,6.079],[7.705,5.929],[7.664,6.047],[7.726,6.115],[7.708,6.298],[7.751,6.386],[7.688,6.629],[7.818,6.638],[7.903,6.781],[7.864,6.88],[7.675,6.856],[7.432,7.102],[7.081,6.8],[6.991,6.785],[6.978,6.85],[6.861,6.753]]]}},{"type":"Feature","properties":{"state":"Taraba","zone":"North East"},"geometry":{"type":"Polygon","coordinates":[[[9.598,6.5],[9.709,6.521],[9.796,6.802],[9.875,6.776],[10.165,7.021],[10.238,6.878],[10.513,6.878],[10.615,7.069],[10.767,6.956],[10.845,6.957],[10.883,6.828],[11.071,6.719],[11.117,6.444],[11.34,6.441],[11.413,6.484],[11.437,6.591],[11.558,6.658],[11.587,6.892],[11.864,7.085],[11.882,7.132],[11.75,7.265],[11.853,7.391],[11.772,7.488],[11.758,7.725],[11.633,7.75],[11.651,7.857],[11.59,7.908],[11.49,7.8],[11.342,8.019],[11.546,8.246],[11.613,8.404],[11.786,8.522],[11.758,8.617],[11.789,8.641],[11.743,8.678],[11.827,8.739],[11.874,8.938],[11.707,9.074],[11.648,9.305],[11.531,9.326],[11.43,9.55],[11.222,9.569],[11.114,9.526],[10.992,9.559],[10.969,9.615],[10.774,9.447],[10.541,9.484],[10.636,9.127],[10.597,8.976],[10.407,8.935],[9.869,8.431],[9.757,8.367],[9.62,8.383],[9.61,8.291],[9.363,8.341],[9.323,8.253],[9.412,8.177],[9.415,8.062],[9.179,7.908],[9.12,7.793],[9.387,7.845],[9.602,7.83],[9.885,7.508],[9.835,7.199],[9.646,6.895],[9.598,6.5]]]}},{"type":"Feature","properties":{"state":"Ebonyi","zone":"South East"},"geometry":{"type":"Polygon","coordinates":[[[8.457,6.418],[8.229,6.8],[8.128,6.712],[7.984,6.72],[7.945,6.54],[7.832,6.638],[7.691,6.638],[7.75,6.437],[7.708,6.298],[7.726,6.115],[7.664,6.047],[7.715,5.946],[7.521,6.0],[7.535,5.835],[7.769,5.814],[7.89,5.685],[7.97,5.768],[7.932,5.83],[8.005,5.9],[7.986,5.982],[8.041,5.998],[8.05,5.951],[8.114,5.938],[8.215,6.012],[8.282,6.005],[8.457,6.418]]]}}]}